IRIDIUM 155             
1 43573U 18061E   22083.45934039  .00000169  00000+0  53155-4 0  9998
2 43573  86.4007 342.6802 0002235  75.4646 284.6797 14.34216996191805
IRIDIUM 154             
1 43574U 18061F   22083.44030496  .00000171  00000+0  54126-4 0  9994
2 43574  86.4012 342.7476 0002199  92.0473 268.0975 14.34219247191853
IRIDIUM 163             
1 43575U 18061G   22083.42127621  .00000166  00000+0  52049-4 0  9996
2 43575  86.4010 342.7182 0001713  89.3989 270.7403 14.34215323191822
IRIDIUM 156             
1 43576U 18061H   22083.46567364  .00000169  00000+0  53430-4 0  9991
2 43576  86.4008 342.7050 0001841  78.7744 281.3659 14.34219123191820
IRIDIUM 164             
1 43577U 18061J   22083.23734881  .00000169  00000+0  53392-4 0  9994
2 43577  86.4011 342.8171 0002035  91.2860 268.8569 14.34215148191839
IRIDIUM 159             
1 43578U 18061K   22083.41493740  .00000165  00000+0  51960-4 0  9996
2 43578  86.4009 342.7123 0002165  90.5236 269.6208 14.34220751191820
IRIDIUM 180             
1 43922U 19002A   22083.48418714  .00000035  00000+0  53946-5 0  9993
2 43922  86.3914 279.5239 0002157 110.8891 249.2535 14.34219575167446
IRIDIUM 176             
1 43923U 19002B   22083.57324280  .00000166  00000+0  22382-4 0  9992
2 43923  86.6049 279.5213 0002417  87.7845 272.3649 14.72249781171847
IRIDIUM 168             
1 43924U 19002C   22083.54760799  .00000035  00000+0  53198-5 0  9994
2 43924  86.3917 279.5311 0002205  96.5532 263.5914 14.34217997167433
IRIDIUM 173             
1 43925U 19002D   22083.53492265  .00000037  00000+0  62145-5 0  9998
2 43925  86.3914 279.4883 0002113  95.7817 264.3620 14.34217942167410
IRIDIUM 169             
1 43926U 19002E   22083.58383893  .00000171  00000+0  49207-4 0  9992
2 43926  86.4207 311.0937 0006134  47.9880 312.1839 14.38606262168018
IRIDIUM 172             
1 43927U 19002F   22083.52858894  .00000040  00000+0  71821-5 0  9998
2 43927  86.3914 279.4941 0002133  98.5668 261.5770 14.34217897167429
IRIDIUM 175             
1 43928U 19002G   22083.56704127  .00000161  00000+0  21684-4 0  9997
2 43928  86.6052 279.3517 0002255  99.7185 260.4287 14.72249482171834
IRIDIUM 171             
1 43929U 19002H   22083.57931696  .00000033  00000+0  46523-5 0  9990
2 43929  86.3924 279.6077 0002228  96.1062 264.0388 14.34218807167426
IRIDIUM 170             
1 43930U 19002J   22083.57940942  .00000153  00000+0  20365-4 0  9994
2 43930  86.6050 279.5244 0002463  91.2534 268.8965 14.72257966171853
IRIDIUM 167             
1 43931U 19002K   22083.57296993  .00000031  00000+0  40124-5 0  9996
2 43931  86.3915 279.4843 0002209 103.7281 256.4161 14.34216622167422
